{
  "type": "FeatureCollection",
  "features": [
    {
      "type": "Feature",
      "properties": {
        "norad_id": 32088,
        "name": "FENGYUN 1C DEB",
        "group": "fengyun-1c-debris",
        "lat": 14.062856127687555,
        "lon": -134.85133326485493,
        "alt_km": 912.7148346671001,
        "timestamp": "2025-12-25T19:00:39.636393+00:00",
        "meta_object_name": "FENGYUN 1C DEB",
        "meta_object_id": "1999-025CQE",
        "meta_epoch": "2025-12-23T10:46:45.629472",
        "meta_mean_motion": 13.25224895,
        "meta_eccentricity": 0.0461755,
        "meta_inclination": 102.4001,
        "meta_ra_of_asc_node": 225.5123,
        "meta_arg_of_pericenter": 334.191,
        "meta_mean_anomaly": 23.6804,
        "meta_ephemeris_type": 0,
        "meta_classification_type": "U",
        "meta_norad_cat_id": 32088,
        "meta_element_set_no": 999,
        "meta_rev_at_epoch": 59986,
        "meta_bstar": 0.002907038,
        "meta_mean_motion_dot": 2.182e-05,
        "meta_mean_motion_ddot": 0,
        "tle_line1": "1 32088U 99025CQE 25357.44913923  .00002182  00000+0  29070-2 0  9995",
        "tle_line2": "2 32088 102.4001 225.5123 0461755 334.1910  23.6804 13.25224895599861"
      },
      "geometry": {
        "type": "Point",
        "coordinates": [
          -134.85133326485493,
          14.062856127687555
        ]
      }
    },
    {
      "type": "Feature",
      "properties": {
        "norad_id": 32089,
        "name": "FENGYUN 1C DEB",
        "group": "fengyun-1c-debris",
        "lat": -46.91456822330538,
        "lon": 14.32950150533143,
        "alt_km": 908.5016779885018,
        "timestamp": "2025-12-25T19:00:39.636403+00:00",
        "meta_object_name": "FENGYUN 1C DEB",
        "meta_object_id": "1999-025CQF",
        "meta_epoch": "2025-12-23T06:06:14.384160",
        "meta_mean_motion": 14.14091196,
        "meta_eccentricity": 0.01123625,
        "meta_inclination": 98.6546,
        "meta_ra_of_asc_node": 2.4994,
        "meta_arg_of_pericenter": 94.1409,
        "meta_mean_anomaly": 267.2615,
        "meta_ephemeris_type": 0,
        "meta_classification_type": "U",
        "meta_norad_cat_id": 32089,
        "meta_element_set_no": 999,
        "meta_rev_at_epoch": 63364,
        "meta_bstar": 0.0004947317,
        "meta_mean_motion_dot": 9.59e-06,
        "meta_mean_motion_ddot": 0,
        "tle_line1": "1 32089U 99025CQF 25357.25433315  .00000959  00000+0  49473-3 0  9997",
        "tle_line2": "2 32089  98.6546   2.4994 0112362  94.1409 267.2615 14.14091196633649"
      },
      "geometry": {
        "type": "Point",
        "coordinates": [
          14.32950150533143,
          -46.91456822330538
        ]
      }
    },
    {
      "type": "Feature",
      "properties": {
        "norad_id": 32093,
        "name": "FENGYUN 1C DEB",
        "group": "fengyun-1c-debris",
        "lat": -55.377514411689894,
        "lon": 19.967246073837632,
        "alt_km": 761.9434350939919,
        "timestamp": "2025-12-25T19:00:39.636413+00:00",
        "meta_object_name": "FENGYUN 1C DEB",
        "meta_object_id": "1999-025CQK",
        "meta_epoch": "2025-12-22T13:04:18.910848",
        "meta_mean_motion": 14.37631207,
        "meta_eccentricity": 0.00789724,
        "meta_inclination": 98.9187,
        "meta_ra_of_asc_node": 209.746,
        "meta_arg_of_pericenter": 324.7154,
        "meta_mean_anomaly": 34.8819,
        "meta_ephemeris_type": 0,
        "meta_classification_type": "U",
        "meta_norad_cat_id": 32093,
        "meta_element_set_no": 999,
        "meta_rev_at_epoch": 96658,
        "meta_bstar": 0.00037654555,
        "meta_mean_motion_dot": 1.123e-05,
        "meta_mean_motion_ddot": 0,
        "tle_line1": "1 32093U 99025CQK 25356.54466332  .00001123  00000+0  37655-3 0  9991",
        "tle_line2": "2 32093  98.9187 209.7460 0078972 324.7154  34.8819 14.37631207966589"
      },
      "geometry": {
        "type": "Point",
        "coordinates": [
          19.967246073837632,
          -55.377514411689894
        ]
      }
    },
    {
      "type": "Feature",
      "properties": {
        "norad_id": 32094,
        "name": "FENGYUN 1C DEB",
        "group": "fengyun-1c-debris",
        "lat": -21.622993305032097,
        "lon": 166.35481140626933,
        "alt_km": 840.4925123178664,
        "timestamp": "2025-12-25T19:00:39.636423+00:00",
        "meta_object_name": "FENGYUN 1C DEB",
        "meta_object_id": "1999-025CQL",
        "meta_epoch": "2025-12-21T05:06:54.522720",
        "meta_mean_motion": 14.10737989,
        "meta_eccentricity": 0.00341017,
        "meta_inclination": 98.7448,
        "meta_ra_of_asc_node": 345.3972,
        "meta_arg_of_pericenter": 243.828,
        "meta_mean_anomaly": 115.9383,
        "meta_ephemeris_type": 0,
        "meta_classification_type": "U",
        "meta_norad_cat_id": 32094,
        "meta_element_set_no": 999,
        "meta_rev_at_epoch": 94484,
        "meta_bstar": 0.00027112552,
        "meta_mean_motion_dot": 4.44e-06,
        "meta_mean_motion_ddot": 0,
        "tle_line1": "1 32094U 99025CQL 25355.21313105  .00000444  00000+0  27113-3 0  9997",
        "tle_line2": "2 32094  98.7448 345.3972 0034101 243.8280 115.9383 14.10737989944847"
      },
      "geometry": {
        "type": "Point",
        "coordinates": [
          166.35481140626933,
          -21.622993305032097
        ]
      }
    },
    {
      "type": "Feature",
      "properties": {
        "norad_id": 32095,
        "name": "FENGYUN 1C DEB",
        "group": "fengyun-1c-debris",
        "lat": -78.7389212504995,
        "lon": 145.22933673123313,
        "alt_km": 896.449641064668,
        "timestamp": "2025-12-25T19:00:39.636434+00:00",
        "meta_object_name": "FENGYUN 1C DEB",
        "meta_object_id": "1999-025CQM",
        "meta_epoch": "2025-12-23T18:17:35.021760",
        "meta_mean_motion": 14.16051909,
        "meta_eccentricity": 0.00789665,
        "meta_inclination": 98.6404,
        "meta_ra_of_asc_node": 13.0475,
        "meta_arg_of_pericenter": 60.9234,
        "meta_mean_anomaly": 299.9819,
        "meta_ephemeris_type": 0,
        "meta_classification_type": "U",
        "meta_norad_cat_id": 32095,
        "meta_element_set_no": 999,
        "meta_rev_at_epoch": 94973,
        "meta_bstar": 0.00024994611,
        "meta_mean_motion_dot": 4.67e-06,
        "meta_mean_motion_ddot": 0,
        "tle_line1": "1 32095U 99025CQM 25357.76221090  .00000467  00000+0  24995-3 0  9991",
        "tle_line2": "2 32095  98.6404  13.0475 0078966  60.9234 299.9819 14.16051909949737"
      },
      "geometry": {
        "type": "Point",
        "coordinates": [
          145.22933673123313,
          -78.7389212504995
        ]
      }
    },
    {
      "type": "Feature",
      "properties": {
        "norad_id": 32096,
        "name": "FENGYUN 1C DEB",
        "group": "fengyun-1c-debris",
        "lat": -75.02897437757828,
        "lon": 65.16227069515436,
        "alt_km": 1033.3721492243776,
        "timestamp": "2025-12-25T19:00:39.636444+00:00",
        "meta_object_name": "FENGYUN 1C DEB",
        "meta_object_id": "1999-025CQN",
        "meta_epoch": "2025-12-19T20:01:42.439872",
        "meta_mean_motion": 13.90214734,
        "meta_eccentricity": 0.01346293,
        "meta_inclination": 99.0729,
        "meta_ra_of_asc_node": 22.6552,
        "meta_arg_of_pericenter": 120.8024,
        "meta_mean_anomaly": 240.6466,
        "meta_ephemeris_type": 0,
        "meta_classification_type": "U",
        "meta_norad_cat_id": 32096,
        "meta_element_set_no": 999,
        "meta_rev_at_epoch": 92960,
        "meta_bstar": 0.00089068221,
        "meta_mean_motion_dot": 1.144e-05,
        "meta_mean_motion_ddot": 0,
        "tle_line1": "1 32096U 99025CQN 25353.83451898  .00001144  00000+0  89068-3 0  9992",
        "tle_line2": "2 32096  99.0729  22.6552 0134629 120.8024 240.6466 13.90214734929600"
      },
      "geometry": {
        "type": "Point",
        "coordinates": [
          65.16227069515436,
          -75.02897437757828
        ]
      }
    },
    {
      "type": "Feature",
      "properties": {
        "norad_id": 32098,
        "name": "FENGYUN 1C DEB",
        "group": "fengyun-1c-debris",
        "lat": -67.62908448172534,
        "lon": 13.505442055643302,
        "alt_km": 954.8849643770645,
        "timestamp": "2025-12-25T19:00:39.636454+00:00",
        "meta_object_name": "FENGYUN 1C DEB",
        "meta_object_id": "1999-025CQQ",
        "meta_epoch": "2025-12-17T05:04:00.480288",
        "meta_mean_motion": 14.20263212,
        "meta_eccentricity": 0.01958107,
        "meta_inclination": 98.6122,
        "meta_ra_of_asc_node": 343.5394,
        "meta_arg_of_pericenter": 106.9951,
        "meta_mean_anomaly": 255.2785,
        "meta_ephemeris_type": 0,
        "meta_classification_type": "U",
        "meta_norad_cat_id": 32098,
        "meta_element_set_no": 999,
        "meta_rev_at_epoch": 64291,
        "meta_bstar": 0.00022141039,
        "meta_mean_motion_dot": 5.31e-06,
        "meta_mean_motion_ddot": 0,
        "tle_line1": "1 32098U 99025CQQ 25351.21111667  .00000531  00000+0  22141-3 0  9999",
        "tle_line2": "2 32098  98.6122 343.5394 0195810 106.9951 255.2785 14.20263212642917"
      },
      "geometry": {
        "type": "Point",
        "coordinates": [
          13.505442055643302,
          -67.62908448172534
        ]
      }
    }
  ]
}